{
  "type": "FeatureCollection",
  "name": "legacy_cadastral",
  "crs": {
    "type": "name",
    "properties": { "name": "urn:ogc:def:crs:OGC:1.3:CRS84" }
  },
  "features": [
    {
      "type": "Feature",
      "properties": {
        "survey_number": "SY-142/A",
        "plot_number": "PLT-001",
        "property_id": "MH-PUNE-001",
        "owner_name": "Ramesh Kumar Sharma",
        "recorded_area_sqm": 420.5,
        "land_use": "residential",
        "source_system": "cadastral"
      },
      "geometry": {
        "type": "Polygon",
        "coordinates": [[
          [73.856000, 18.520000],
          [73.856400, 18.520000],
          [73.856400, 18.520380],
          [73.856000, 18.520380],
          [73.856000, 18.520000]
        ]]
      }
    },
    {
      "type": "Feature",
      "properties": {
        "survey_number": "SY-143",
        "plot_number": "PLT-002",
        "property_id": "MH-PUNE-002",
        "owner_name": "Priya Venkataraman",
        "recorded_area_sqm": 310.0,
        "land_use": "commercial",
        "source_system": "cadastral"
      },
      "geometry": {
        "type": "Polygon",
        "coordinates": [[
          [73.856400, 18.520000],
          [73.856750, 18.520000],
          [73.856750, 18.520280],
          [73.856400, 18.520280],
          [73.856400, 18.520000]
        ]]
      }
    },
    {
      "type": "Feature",
      "properties": {
        "survey_number": "SY-144/1",
        "plot_number": "PLT-003",
        "property_id": "MH-PUNE-003",
        "owner_name": "Mohammed Iqbal Khan",
        "recorded_area_sqm": 550.0,
        "land_use": "agricultural",
        "source_system": "cadastral"
      },
      "geometry": {
        "type": "Polygon",
        "coordinates": [[
          [73.856000, 18.520380],
          [73.856550, 18.520380],
          [73.856550, 18.520750],
          [73.856000, 18.520750],
          [73.856000, 18.520380]
        ]]
      }
    },
    {
      "type": "Feature",
      "properties": {
        "survey_number": "SY-145",
        "plot_number": "PLT-004",
        "property_id": "MH-PUNE-004",
        "owner_name": "Anita Desai",
        "recorded_area_sqm": 195.0,
        "land_use": "residential",
        "source_system": "cadastral"
      },
      "geometry": {
        "type": "Polygon",
        "coordinates": [[
          [73.856550, 18.520380],
          [73.856900, 18.520380],
          [73.856900, 18.520620],
          [73.856550, 18.520620],
          [73.856550, 18.520380]
        ]]
      }
    },
    {
      "type": "Feature",
      "properties": {
        "survey_number": "SY-146",
        "plot_number": "PLT-005",
        "property_id": "MH-PUNE-005",
        "owner_name": "Suresh Patel",
        "recorded_area_sqm": 680.0,
        "land_use": "industrial",
        "source_system": "cadastral"
      },
      "geometry": {
        "type": "Polygon",
        "coordinates": [[
          [73.856000, 18.520750],
          [73.856800, 18.520750],
          [73.856800, 18.521200],
          [73.856000, 18.521200],
          [73.856000, 18.520750]
        ]]
      }
    }
  ]
}
