{"type": "FeatureCollection", "features": [{"type": "Feature", "geometry": {"type": "Polygon", "coordinates": [[[73.85605, 18.52077], [73.85675, 18.52078], [73.85674, 18.52118], [73.85604, 18.52117], [73.85605, 18.52077]]]}, "properties": {"parcel_uid": "IN-MH-PUNE-PMC-W01-235F1CE0-v2", "ulpin": null, "survey_number": "SY-146", "plot_number": "PLT-005", "property_id": "MH-PUNE-005", "owner_name": "Suresh C. Patel", "recorded_area_sqm": null, "geometry_area_sqm": "3120.8", "land_use": null, "source_system": "drone_ori", "validation_status": "human_approved", "version": 2, "created_at": "2026-09-27T15:53:36.271717+00:00"}}, {"type": "Feature", "geometry": {"type": "Polygon", "coordinates": [[[73.856025, 18.520015], [73.85642, 18.52001], [73.856415, 18.520395], [73.85601, 18.520385], [73.856025, 18.520015]]]}, "properties": {"parcel_uid": "IN-MH-PUNE-PMC-W01-D6FBE7DE", "ulpin": null, "survey_number": "SY-142/A", "plot_number": "PLT-001", "property_id": "MH-PUNE-001", "owner_name": "Ramesh K. Sharma", "recorded_area_sqm": null, "geometry_area_sqm": "1682.7", "land_use": null, "source_system": "drone_ori", "validation_status": "auto_linked", "version": 1, "created_at": "2026-09-27T15:53:23.165009+00:00"}}, {"type": "Feature", "geometry": {"type": "Polygon", "coordinates": [[[73.85641, 18.520005], [73.85676, 18.52], [73.856755, 18.520285], [73.856395, 18.520275], [73.85641, 18.520005]]]}, "properties": {"parcel_uid": "IN-MH-PUNE-PMC-W01-8B0DAE99", "ulpin": null, "survey_number": "SY-143", "plot_number": "PLT-002", "property_id": "MH-PUNE-002", "owner_name": "P. Venkataraman", "recorded_area_sqm": null, "geometry_area_sqm": "1097.89", "land_use": null, "source_system": "drone_ori", "validation_status": "auto_linked", "version": 1, "created_at": "2026-09-27T15:53:23.165009+00:00"}}, {"type": "Feature", "geometry": {"type": "Polygon", "coordinates": [[[73.85601, 18.52039], [73.85659, 18.520385], [73.85658, 18.52077], [73.85599, 18.52076], [73.85601, 18.52039]]]}, "properties": {"parcel_uid": "IN-MH-PUNE-PMC-W01-E6884B12", "ulpin": null, "survey_number": "SY-144/1", "plot_number": "PLT-003", "property_id": "MH-PUNE-003", "owner_name": "Mohammed Iqbal", "recorded_area_sqm": null, "geometry_area_sqm": "2460.94", "land_use": null, "source_system": "drone_ori", "validation_status": "auto_linked", "version": 1, "created_at": "2026-09-27T15:53:23.165009+00:00"}}, {"type": "Feature", "geometry": {"type": "Polygon", "coordinates": [[[73.8569, 18.5205], [73.8572, 18.5205], [73.8572, 18.52075], [73.8569, 18.52075], [73.8569, 18.5205]]]}, "properties": {"parcel_uid": "IN-MH-PUNE-PMC-W01-EBCB5CF7", "ulpin": null, "survey_number": "SY-147", "plot_number": "PLT-006", "property_id": "MH-PUNE-006", "owner_name": "New Owner Arun Joshi", "recorded_area_sqm": null, "geometry_area_sqm": "835.63", "land_use": null, "source_system": "drone_ori", "validation_status": "unverified", "version": 1, "created_at": "2026-09-27T15:53:23.165009+00:00"}}, {"type": "Feature", "geometry": {"type": "Polygon", "coordinates": [[[73.856, 18.52], [73.8564, 18.52], [73.8564, 18.52038], [73.856, 18.52038], [73.856, 18.52]]]}, "properties": {"parcel_uid": "IN-MH-PUNE-PMC-W01-7FECF6F5", "ulpin": null, "survey_number": "SY-142/A", "plot_number": "PLT-001", "property_id": "MH-PUNE-001", "owner_name": "Ramesh Kumar Sharma", "recorded_area_sqm": null, "geometry_area_sqm": "1693.56", "land_use": null, "source_system": "cadastral", "validation_status": "unverified", "version": 1, "created_at": "2026-09-27T15:51:32.470036+00:00"}}, {"type": "Feature", "geometry": {"type": "Polygon", "coordinates": [[[73.8564, 18.52], [73.85675, 18.52], [73.85675, 18.52028], [73.8564, 18.52028], [73.8564, 18.52]]]}, "properties": {"parcel_uid": "IN-MH-PUNE-PMC-W01-81B45F3F", "ulpin": null, "survey_number": "SY-143", "plot_number": "PLT-002", "property_id": "MH-PUNE-002", "owner_name": "Priya Venkataraman", "recorded_area_sqm": null, "geometry_area_sqm": "1091.9", "land_use": null, "source_system": "cadastral", "validation_status": "unverified", "version": 1, "created_at": "2026-09-27T15:51:32.470036+00:00"}}, {"type": "Feature", "geometry": {"type": "Polygon", "coordinates": [[[73.856, 18.52038], [73.85655, 18.52038], [73.85655, 18.52075], [73.856, 18.52075], [73.856, 18.52038]]]}, "properties": {"parcel_uid": "IN-MH-PUNE-PMC-W01-849BFFF5", "ulpin": null, "survey_number": "SY-144/1", "plot_number": "PLT-003", "property_id": "MH-PUNE-003", "owner_name": "Mohammed Iqbal Khan", "recorded_area_sqm": null, "geometry_area_sqm": "2267.36", "land_use": null, "source_system": "cadastral", "validation_status": "unverified", "version": 1, "created_at": "2026-09-27T15:51:32.470036+00:00"}}, {"type": "Feature", "geometry": {"type": "Polygon", "coordinates": [[[73.85655, 18.52038], [73.8569, 18.52038], [73.8569, 18.52062], [73.85655, 18.52062], [73.85655, 18.52038]]]}, "properties": {"parcel_uid": "IN-MH-PUNE-PMC-W01-F3A0D5B8", "ulpin": null, "survey_number": "SY-145", "plot_number": "PLT-004", "property_id": "MH-PUNE-004", "owner_name": "Anita Desai", "recorded_area_sqm": null, "geometry_area_sqm": "935.91", "land_use": null, "source_system": "cadastral", "validation_status": "unverified", "version": 1, "created_at": "2026-09-27T15:51:32.470036+00:00"}}, {"type": "Feature", "geometry": {"type": "Polygon", "coordinates": [[[73.856, 18.52075], [73.8568, 18.52075], [73.8568, 18.5212], [73.856, 18.5212], [73.856, 18.52075]]]}, "properties": {"parcel_uid": "IN-MH-PUNE-PMC-W01-1C078150", "ulpin": null, "survey_number": "SY-146", "plot_number": "PLT-005", "property_id": "MH-PUNE-005", "owner_name": "Suresh Patel", "recorded_area_sqm": null, "geometry_area_sqm": "4011.03", "land_use": null, "source_system": "cadastral", "validation_status": "unverified", "version": 1, "created_at": "2026-09-27T15:51:32.470036+00:00"}}]}